STARLINK-1525
1 46066U 20055AR  26079.91668981  .00980663  00000+0  34067-1 0  9998
2 46066  53.0551  44.9869 0001442 110.7659 155.6752 15.26593716  5778
STARLINK-1536
1 46070U 20055AV  26079.89638686  .00000423  00000+0  47295-4 0  9996
2 46070  53.0564  46.3097 0001474  87.5547 272.5611 15.06396019311002
STARLINK-1542
1 46073U 20055AY  26079.62362085  .00001174  00000+0  97661-4 0  9993
2 46073  53.0565  47.5345 0001398  93.2255 266.8894 15.06400539310955
STARLINK-1549
1 46074U 20055AZ  26079.27714424  .00000247  00000+0  35497-4 0  9992
2 46074  53.0556  49.0891 0001422  85.6529 274.4623 15.06393812310899
STARLINK-1551
1 46075U 20055BA  26079.90007475  .00001459  00000+0  11684-3 0  9991
2 46075  53.0561  46.2934 0001351  88.6667 271.4477 15.06400420310999
STARLINK-1552
1 46076U 20055BB  26079.92586630 -.00000259  00000+0  15174-5 0  9997
2 46076  53.0561  46.1760 0000933  85.6115 274.4981 15.06398386310985
STARLINK-1559
1 46077U 20055BC  26079.53338912  .00040003  00000+0  13356-2 0  9990
2 46077  53.0263  23.4207 0004456  76.9735 283.1762 15.30670749311241
STARLINK-1566
1 46079U 20055BE  26079.61257209  .00002871  00000+0  21158-3 0  9991
2 46079  53.0566  47.5842 0001533  96.6034 263.5130 15.06395584310957
STARLINK-1568
1 46080U 20055BF  26079.92880497  .00035446  00000+0  68740-3 0  9990
2 46080  53.0624 339.3025 0006056 151.5265 208.6074 15.47349158311938
STARLINK-1578
1 46082U 20055BH  26079.62731278 -.00000278  00000+0  21853-6 0  9994
2 46082  53.0556  47.5180 0001302  88.4627 271.6511 15.06397719310951
STARLINK-1579
1 46083U 20055BJ  26079.92860865 -.00000547  00000+0 -17828-4 0  9998
2 46083  53.0563  46.1551 0001409  94.1596 265.9554 15.06396603310992
STARLINK-1585
1 46117U 20057A   26079.91668981  .00286330  41268-4  92910-3 0  9996
2 46117  53.0389 190.0929 0005190 348.4212  54.6492 15.90299712  5884
STARLINK-1593
1 46119U 20057C   26079.91668981  .00128026  00000+0  72321-3 0  9993
2 46119  53.0418 214.3230 0002151 324.4182 174.9725 15.78265138  5974
STARLINK-1621
1 46127U 20057L   26079.91668981  .00142648  00000+0  69417-3 0  9990
2 46127  53.0436 187.3661 0006842 319.7624 264.1037 15.81463977  5927
STARLINK-1622
1 46128U 20057M   26079.67986516  .00086283  00000+0  82090-3 0  9995
2 46128  53.0241 170.2078 0002311 255.5704 104.5054 15.66129092309088
STARLINK-1623
1 46129U 20057N   26079.82854114  .00116595  00000+0  16921-2 0  9990
2 46129  53.0510 202.2155 0004215 239.6894 120.3700 15.54964457308653
STARLINK-1624
1 46130U 20057P   26079.67127175  .00139090  00000+0  10757-2 0  9991
2 46130  53.0431 178.0596 0007549 358.6818   1.4177 15.70940424310226
STARLINK-1625
1 46131U 20057Q   26079.91668981  .00281843  40442-4  89727-3 0  9991
2 46131  53.0432 191.1868 0007757 317.6945 196.0335 15.90646392  5938
STARLINK-1596
1 46141U 20057AA  26079.67557352  .00091470  00000+0  17980-2 0  9991
2 46141  53.0422 178.4142 0001032 268.8755  91.2133 15.46546908308972
STARLINK-1597
1 46142U 20057AB  26079.75122012  .00136414  00000+0  17460-2 0  9993
2 46142  53.0457 243.1877 0005486 201.5983 158.4798 15.58259611308068
STARLINK-1606
1 46144U 20057AD  26079.73274183  .00100808  00000+0  94136-3 0  9994
2 46144  53.0443 202.1894 0002759 341.2883  18.8031 15.66525949296895
STARLINK-1608
1 46146U 20057AF  26079.87762216  .00006329  00000+0  22559-3 0  9993
2 46146  53.1591 257.3313 0001404  76.7062 283.4096 15.30206755307891
STARLINK-1667
1 46155U 20057AQ  26079.66561616  .00094298  00000+0  87706-3 0  9998
2 46155  53.0226 170.8342 0002309 237.0483 123.0310 15.66654713310319
STARLINK-1545
1 46156U 20057AR  26079.91668981  .00010628  00000+0  11365-3 0  9993
2 46156  53.0435 203.5040 0004501   0.6654 300.6635 15.64528842  5934
STARLINK-1587
1 46157U 20057AS  26080.31536267  .04427928  11907-4  19207-2 0  9995
2 46157  53.0206 155.6059 0009361 351.7798   8.3086 16.21768274309349
STARLINK-1595
1 46159U 20057AU  26079.43726221  .00083896  00000+0  13491-2 0  9993
2 46159  53.0473 244.9942 0004263 160.2270 199.8905 15.52293584309272
STARLINK-1598
1 46160U 20057AV  26078.83155922  .00078942  00000+0  12257-2 0  9997
2 46160  53.0498 234.7703 0004416 277.1260  82.9247 15.53291898309357
STARLINK-1612
1 46164U 20057AZ  26079.91668981  .00102023  00000+0  40685-3 0  9990
2 46164  53.0318 155.2121 0006345 336.3892 194.9370 15.85816088  5921
STARLINK-1626
1 46167U 20057BC  26079.73852637  .00141571  00000+0  19024-2 0  9999
2 46167  53.0461 240.8028 0004204 186.1524 173.9436 15.56942820308103
STARLINK-1627
1 46168U 20057BD  26079.94119045  .00143941  00000+0  94648-3 0  9991
2 46168  53.0402 168.8627 0005323  40.3425 319.7988 15.74749491309121
STARLINK-1633
1 46171U 20057BG  26079.39483742  .00082413  00000+0  92819-3 0  9996
2 46171  53.0388 206.8866 0005960 340.3386  19.7396 15.61849169309806
STARLINK-1635
1 46172U 20057BH  26079.91668981  .00108004  00000+0  11310-2 0  9996
2 46172  53.0424 202.7508 0006331  14.2413  48.0850 15.63594066  5939
STARLINK-1640
1 46173U 20057BJ  26079.89336435  .00100654  00000+0  13940-2 0  9994
2 46173  53.0491 244.9181 0005674 193.6479 166.4379 15.56299049308057
STARLINK-1641
1 46174U 20057BK  26079.41412654  .00028823  00000+0  49113-3 0  9990
2 46174  53.0487 233.4606 0001309 338.2874  21.8078 15.51164763308177
STARLINK-1654
1 46326U 20062B   26079.92314753  .00106393  00000+0  81904-3 0  9995
2 46326  53.0414 278.0894 0004403 344.6964  15.3919 15.71196993306687
STARLINK-1686
1 46328U 20062D   26079.87841980  .00128142  00000+0  91009-3 0  9991
2 46328  53.0407 258.9782 0007394 317.5164  42.5281 15.72996469306947
STARLINK-1695
1 46329U 20062E   26079.58700516  .00068206  00000+0  94474-3 0  9992
2 46329  53.0503 283.8739 0004637 176.4432 183.6613 15.56472962306564
STARLINK-1719
1 46331U 20062G   26079.82858086  .00131116  00000+0  15592-2 0  9992
2 46331  53.0429 284.5935 0004746 308.3371  51.7215 15.60225562306581
STARLINK-1727
1 46335U 20062L   26079.26475998  .00095664  00000+0  73561-3 0  9999
2 46335  53.0411 283.9066 0005086 333.3472  26.7283 15.71265851306542
STARLINK-1752
1 46338U 20062P   26079.97296079  .00794824  32106-3  12357-2 0  9996
2 46338  53.0325 268.8979 0008431 285.7019  74.3081 16.03501542306808
STARLINK-1759
1 46340U 20062R   26079.82972340  .00123612  00000+0  13683-2 0  9993
2 46340  53.0234 276.3642 0000598 142.2783 217.8271 15.62126009306688
STARLINK-1762
1 46342U 20062T   26079.90617307  .00013041  00000+0  45138-3 0  9998
2 46342  53.1599 318.8826 0001175  83.7089 276.4046 15.30219655306115
STARLINK-1764
1 46343U 20062U   26079.87349330  .00106639  00000+0  90282-3 0  9999
2 46343  53.0429 261.9420 0002533 329.9977  30.0893 15.68912500306906
STARLINK-1765
1 46344U 20062V   26079.94268686  .00595197  15921-3  14236-2 0  9999
2 46344  53.0342 244.1077 0006957 286.5377  73.4886 15.95977160307152
STARLINK-1547
1 46347U 20062Y   26079.88326160  .00092266  00000+0  87440-3 0  9992
2 46347  53.0361 223.8514 0002738 226.7185 133.3602 15.66197136307429
STARLINK-1553
1 46348U 20062Z   26079.74983309  .00022291  00000+0  61349-3 0  9993
2 46348  53.0381 254.8534 0004102 177.3882 182.7142 15.37106394306992
STARLINK-1575
1 46349U 20062AA  26079.91668981  .00297839  43617-4  98611-3 0  9999
2 46349  53.0248 205.7558 0005451 276.4669 274.8073 15.89892461  5983
STARLINK-1646
1 46351U 20062AC  26079.85346496  .00078096  00000+0  10319-2 0  9993
2 46351  53.0454 281.1487 0005023 186.1880 173.9070 15.57681056306645
STARLINK-1653
1 46352U 20062AD  26079.92602485  .00117167  00000+0  13122-2 0  9993
2 46352  53.0437 267.6531 0007877 291.6475  68.3699 15.61821261306831
STARLINK-1656
1 46353U 20062AE  26079.92536612  .00086124  00000+0  12923-2 0  9998
2 46353  53.0486 305.3636 0003264 207.0934 152.9906 15.54198976306292
STARLINK-1657
1 46354U 20062AF  26079.91668981  .00350987  56379-4  11814-2 0  9997
2 46354  53.0416 272.2472 0007612 295.3940 210.5756 15.89511593  5937
STARLINK-1661
1 46355U 20062AG  26079.96404189  .00031562  00000+0  10696-2 0  9998
2 46355  53.1585 318.6165 0001306  97.8867 262.2282 15.30308811306123
STARLINK-1665
1 46356U 20062AH  26078.98769686  .00078896  00000+0  75400-3 0  9992
2 46356  53.0419 286.3109 0003528 301.5940  58.4730 15.66051512306487
STARLINK-1666
1 46357U 20062AJ  26079.89885301  .00105430  00000+0  12407-2 0  9999
2 46357  53.0461 279.7994 0004941 183.1605 176.9377 15.60605863306655
STARLINK-1707
1 46359U 20062AL  26079.87562594  .00093290  00000+0  86622-3 0  9996
2 46359  53.0239 219.4810 0002197 212.0106 148.0776 15.66701713307490
STARLINK-1726
1 46362U 20062AP  26080.06932795  .01655956  23928-2  11802-2 0  9995
2 46362  53.0296 200.9793 0009886 314.4080  45.6146 16.15864376307776
STARLINK-1724
1 46375U 20062BC  26079.42709239  .00084963  00000+0  12248-2 0  9993
2 46375  53.0288 235.3611 0003524 329.8920  30.1887 15.55298455307232
STARLINK-1742
1 46376U 20062BD  26079.91668981  .00237505  00000+0  84914-3 0  9998
2 46376  53.0247 198.9960 0002801 236.6389  67.2649 15.87671516  5937
STARLINK-1770
1 46383U 20062BL  26079.90844913  .00056002  00000+0  54518-3 0  9994
2 46383  53.0403 260.6291 0003005 299.9100  60.1616 15.65733346306928
STARLINK-1771
1 46384U 20062BM  26079.89458800  .00061297  00000+0  11539-2 0  9996
2 46384  53.0417 292.3990 0003093 292.0578  68.0100 15.47974125306479
STARLINK-1648
1 46533U 20070B   26080.20081881  .00878239  38632-3  15265-2 0  9997
2 46533  53.0393  66.7583 0003721  39.3422 320.7877 16.01692225302055
STARLINK-1663
1 46535U 20070D   26079.43204790  .00061607  00000+0  56533-3 0  9999
2 46535  53.0414  82.5066 0001496 143.0163 217.0956 15.67167601301764
STARLINK-1672
1 46537U 20070F   26079.72630464  .00044126  00000+0  69375-3 0  9999
2 46537  53.0478  85.6074 0004639  83.2648 276.8889 15.53196762301756
